0 PAKSAT 1R
1 37779U 11042A   13285.16480744  .00000131  00000-0  10000-3 0  4415
2 37779 000.0404 321.6263 0002749 233.9301 282.6829 01.00269905  8039
0 PAKSAT 1R
1 37779U 11042A   13286.96249214  .00000129  00000-0  10000-3 0  4427
2 37779 000.0388 321.9591 0002762 231.9674 213.2393 01.00270642  8051
0 PAKSAT 1R
1 37779U 11042A   13289.74033806  .00000130  00000-0  10000-3 0  4437
2 37779 000.0407 341.4226 0002933 216.9418 131.5565 01.00271953  8075
0 PAKSAT 1R
1 37779U 11042A   13294.05230337  .00000139  00000-0  10000-3 0  4445
2 37779 000.0441 020.8491 0003097 186.7442 238.9162 01.00275069  8121
0 PAKSAT 1R
1 37779U 11042A   13295.18324216  .00000140  00000-0  10000-3 0  4453
2 37779 000.0443 020.5287 0003161 190.3127 283.9337 01.00275628  8132
0 PAKSAT 1R
1 37779U 11042A   13295.77480250  .00000141  00000-0  10000-3 0  4461
2 37779 000.0460 015.9818 0003089 187.5275 144.8143 01.00275159  8139
